{"spkid": "54196823", "covariance": {"epoch": "2459154.5", "labels": ["e", "q", "tp", "node", "peri", "i"], "elements": [{"label": "e", "sigma": 6.54032391072279e-07, "name": "e", "units": null, "title": "eccentricity", "value": ".2741639030592214"}, {"label": "q", "title": "perihelion distance", "value": ".9510354530256062", "units": "au", "name": "q", "sigma": 8.56529424205209e-07}, {"label": "tp", "sigma": 0.000107702508042048, "name": "tp", "title": "time of perihelion passage", "value": "2459415.331676400364", "units": "TDB"}, {"value": "166.70487182362", "title": "longitude of the ascending node", "units": "deg", "name": "om", "sigma": 5.47343501701176e-06, "label": "node"}, {"value": "122.7420495310928", "title": "argument of perihelion", "units": "deg", "name": "w", "sigma": 0.00017537046213267, "label": "peri"}, {"label": "i", "name": "i", "sigma": 1.95870519097752e-05, "units": "deg", "value": "9.071802040369851", "title": "inclination"}], "data": [["4.277583685717223E-13", "-5.601979549318225E-13", "-6.972160073853266E-11", "-1.841096646283719E-12", "-1.14168394388287E-10", "-1.000301918469816E-11"], ["-5.601979549318225E-13", "7.336426545293064E-13", "9.131126755068392E-11", "2.410855162940599E-12", "1.495196022250494E-10", "1.309954500545566E-11"], ["-6.972160073853266E-11", "9.131126755068392E-11", "1.159983023854752E-8", "2.820378917016544E-10", "1.885777015624049E-8", "1.663379632241109E-9"], ["-1.841096646283719E-12", "2.410855162940599E-12", "2.820378917016544E-10", "2.995849088545054E-11", "4.521417904745487E-10", "2.263017360048591E-11"], ["-1.14168394388287E-10", "1.495196022250494E-10", "1.885777015624049E-8", "4.521417904745487E-10", "3.075479898862612E-8", "2.71659292708634E-9"], ["-1.000301918469816E-11", "1.309954500545566E-11", "1.663379632241109E-9", "2.263017360048591E-11", "2.71659292708634E-9", "3.836526025162298E-10"]]}, "elements": [{"sigma": "6.5247E-7", "name": "e", "units": null, "title": "eccentricity", "value": ".2741594958906139", "label": "e"}, {"units": "au", "title": "semi-major axis", "value": "1.311078419324231", "name": "a", "sigma": "3.8123E-9", "label": "a"}, {"sigma": "8.5418E-7", "name": "q", "title": "perihelion distance", "value": ".9516338208092368", "units": "au", "label": "q"}, {"name": "i", "sigma": "1.922E-5", "title": "inclination; angle with respect to x-y ecliptic plane", "value": "9.131776796306559", "units": "deg", "label": "i"}, {"units": "deg", "value": "166.54510763", "title": "longitude of the ascending node", "sigma": "5.3983E-6", "name": "om", "label": "node"}, {"name": "w", "sigma": ".00017567", "title": "argument of perihelion", "value": "123.0777470280173", "units": "deg", "label": "peri"}, {"label": "M", "name": "ma", "sigma": "7.0405E-5", "units": "deg", "title": "mean anomaly", "value": "92.40643631647718"}, {"sigma": ".00010747", "name": "tp", "units": "TDB", "value": "2461059.752350362402", "title": "time of perihelion passage", "label": "tp"}, {"units": "d", "value": "548.3292710910484", "title": "sidereal orbital period", "sigma": "2.3916E-6", "name": "per", "label": "period"}, {"units": "deg/d", "title": "mean motion", "value": ".6565398182805073", "name": "n", "sigma": "2.8636E-9", "label": "n"}, {"units": "au", "title": "aphelion distance", "value": "1.670523017839225", "name": "ad", "sigma": "4.8575E-9", "label": "Q"}], "epoch": "2461200.5"}